{
    "type": "FeatureCollection",
    "features": [
        {
            "type": "Feature",
            "geometry": {
                "type": "Polygon",
                "coordinates": [
                    [
                        [
                            39.56916666666667,
                            54.90694444444444
                        ],
                        [
                            39.53916666666667,
                            54.900555555555556
                        ],
                        [
                            39.56916666666667,
                            54.90694444444444
                        ]
                    ]
                ]
            },
            "properties": {
                "description": "\u0420\u044f\u0437\u0430\u043d\u0441\u043a\u0430\u044f \u043e\u0431\u043b\u0430\u0441\u0442\u044c -> \u0440\u0435\u043a\u0430 \u041e\u043a\u0430 (\u0420\u044b\u0431\u043d\u043e\u0432\u0441\u043a\u0438\u0439 \u0440\u0430\u0439\u043e\u043d):"
            }
        },
        {
            "type": "Feature",
            "geometry": {
                "type": "Polygon",
                "coordinates": [
                    [
                        [
                            39.6145,
                            54.88030555555556
                        ],
                        [
                            39.61377777777778,
                            54.883833333333335
                        ],
                        [
                            39.659,
                            54.91419444444444
                        ],
                        [
                            39.65669444444444,
                            54.91302777777778
                        ],
                        [
                            39.612027777777776,
                            54.90391666666667
                        ],
                        [
                            39.62127777777778,
                            54.9045
                        ],
                        [
                            39.6145,
                            54.88030555555556
                        ]
                    ]
                ]
            },
            "properties": {
                "description": "\u0420\u044f\u0437\u0430\u043d\u0441\u043a\u0430\u044f \u043e\u0431\u043b\u0430\u0441\u0442\u044c -> \u0440\u0435\u043a\u0430 \u041e\u043a\u0430 (\u0420\u044b\u0431\u043d\u043e\u0432\u0441\u043a\u0438\u0439 \u0440\u0430\u0439\u043e\u043d):"
            }
        },
        {
            "type": "Feature",
            "geometry": {
                "type": "Polygon",
                "coordinates": [
                    [
                        [
                            39.80027777777777,
                            54.825833333333335
                        ],
                        [
                            39.823888888888895,
                            54.846111111111114
                        ],
                        [
                            39.80027777777777,
                            54.825833333333335
                        ]
                    ]
                ]
            },
            "properties": {
                "description": "\u0420\u044f\u0437\u0430\u043d\u0441\u043a\u0430\u044f \u043e\u0431\u043b\u0430\u0441\u0442\u044c -> \u0440\u0435\u043a\u0430 \u041e\u043a\u0430 (\u0420\u044b\u0431\u043d\u043e\u0432\u0441\u043a\u0438\u0439 \u0440\u0430\u0439\u043e\u043d):"
            }
        },
        {
            "type": "Feature",
            "geometry": {
                "type": "Polygon",
                "coordinates": [
                    [
                        [
                            39.78461111111111,
                            54.782916666666665
                        ],
                        [
                            39.78477777777778,
                            54.78213888888889
                        ],
                        [
                            39.76902777777778,
                            54.762972222222224
                        ],
                        [
                            39.771388888888886,
                            54.76197222222222
                        ],
                        [
                            39.78633333333333,
                            54.739444444444445
                        ],
                        [
                            39.78594444444444,
                            54.739333333333335
                        ],
                        [
                            39.71691666666667,
                            54.69258333333333
                        ],
                        [
                            39.71658333333334,
                            54.692611111111106
                        ],
                        [
                            39.737027777777776,
                            54.70091666666667
                        ],
                        [
                            39.734861111111115,
                            54.70027777777778
                        ],
                        [
                            39.71588888888889,
                            54.69877777777778
                        ],
                        [
                            39.71530555555556,
                            54.69897222222222
                        ],
                        [
                            39.78461111111111,
                            54.782916666666665
                        ]
                    ]
                ]
            },
            "properties": {
                "description": "\u0420\u044f\u0437\u0430\u043d\u0441\u043a\u0430\u044f \u043e\u0431\u043b\u0430\u0441\u0442\u044c -> \u0440\u0435\u043a\u0430 \u041e\u043a\u0430:"
            }
        },
        {
            "type": "Feature",
            "geometry": {
                "type": "Polygon",
                "coordinates": [
                    [
                        [
                            39.89525,
                            54.61591666666667
                        ],
                        [
                            39.89530555555555,
                            54.61613888888889
                        ],
                        [
                            39.86269444444444,
                            54.61727777777778
                        ],
                        [
                            39.860055555555554,
                            54.61688888888889
                        ],
                        [
                            39.90691666666667,
                            54.61058333333334
                        ],
                        [
                            39.90708333333333,
                            54.60966666666667
                        ],
                        [
                            39.89525,
                            54.61591666666667
                        ]
                    ]
                ]
            },
            "properties": {
                "description": "\u0420\u044f\u0437\u0430\u043d\u0441\u043a\u0430\u044f \u043e\u0431\u043b\u0430\u0441\u0442\u044c -> \u0440\u0435\u043a\u0430 \u041e\u043a\u0430:"
            }
        },
        {
            "type": "Feature",
            "geometry": {
                "type": "Polygon",
                "coordinates": [
                    [
                        [
                            39.94944444444444,
                            54.63111111111111
                        ],
                        [
                            39.93111111111111,
                            54.647777777777776
                        ],
                        [
                            39.94944444444444,
                            54.63111111111111
                        ]
                    ]
                ]
            },
            "properties": {
                "description": "\u0420\u044f\u0437\u0430\u043d\u0441\u043a\u0430\u044f \u043e\u0431\u043b\u0430\u0441\u0442\u044c -> \u043e\u0437\u0435\u0440\u043e \u0412\u0435\u043b\u044c\u0435 (\u0420\u044f\u0437\u0430\u043d\u0441\u043a\u0438\u0439 \u0440\u0430\u0439\u043e\u043d):"
            }
        },
        {
            "type": "Feature",
            "geometry": {
                "type": "Polygon",
                "coordinates": [
                    [
                        [
                            40.075138888888894,
                            54.565305555555554
                        ],
                        [
                            40.07669444444445,
                            54.56480555555555
                        ],
                        [
                            40.062749999999994,
                            54.56030555555555
                        ],
                        [
                            40.06922222222222,
                            54.558388888888885
                        ],
                        [
                            40.07361111111111,
                            54.554111111111105
                        ],
                        [
                            40.070750000000004,
                            54.55272222222222
                        ],
                        [
                            40.075138888888894,
                            54.565305555555554
                        ]
                    ]
                ]
            },
            "properties": {
                "description": "\u0420\u044f\u0437\u0430\u043d\u0441\u043a\u0430\u044f \u043e\u0431\u043b\u0430\u0441\u0442\u044c -> \u043e\u0437\u0435\u0440\u043e \u041a\u0430\u0437\u0430\u0440\u0441\u043a\u043e\u0435 (\u0420\u044f\u0437\u0430\u043d\u0441\u043a\u0438\u0439 \u0440\u0430\u0439\u043e\u043d):"
            }
        },
        {
            "type": "Feature",
            "geometry": {
                "type": "Polygon",
                "coordinates": [
                    [
                        [
                            40.18286111111111,
                            54.505583333333334
                        ],
                        [
                            40.183166666666665,
                            54.50630555555556
                        ],
                        [
                            40.149388888888886,
                            54.52011111111111
                        ],
                        [
                            40.14958333333333,
                            54.52063888888889
                        ],
                        [
                            40.18286111111111,
                            54.505583333333334
                        ]
                    ]
                ]
            },
            "properties": {
                "description": "\u0420\u044f\u0437\u0430\u043d\u0441\u043a\u0430\u044f \u043e\u0431\u043b\u0430\u0441\u0442\u044c -> \u043e\u0437\u0435\u0440\u043e \u0420\u0430\u0437\u0432\u0430\u043d\u044c (\u0421\u043f\u0430\u0441\u0441\u043a\u0438\u0439 \u0440\u0430\u0439\u043e\u043d):"
            }
        },
        {
            "type": "Feature",
            "geometry": {
                "type": "Polygon",
                "coordinates": [
                    [
                        [
                            40.238166666666665,
                            54.48422222222222
                        ],
                        [
                            40.240722222222225,
                            54.48608333333333
                        ],
                        [
                            40.20505555555556,
                            54.50427777777778
                        ],
                        [
                            40.20736111111111,
                            54.50494444444445
                        ],
                        [
                            40.238166666666665,
                            54.48422222222222
                        ]
                    ]
                ]
            },
            "properties": {
                "description": "\u0420\u044f\u0437\u0430\u043d\u0441\u043a\u0430\u044f \u043e\u0431\u043b\u0430\u0441\u0442\u044c -> \u043e\u0437\u0435\u0440\u043e \u0411\u043e\u043b\u044c\u0448\u043e\u0435 \u041f\u0435\u0442\u0440\u043e\u0432\u0438\u0447\u0441\u043a\u043e\u0435 (\u0421\u043f\u0430\u0441\u0441\u043a\u0438\u0439 \u0440\u0430\u0439\u043e\u043d):"
            }
        },
        {
            "type": "Feature",
            "geometry": {
                "type": "Polygon",
                "coordinates": [
                    [
                        [
                            40.86516666666667,
                            54.38066666666667
                        ],
                        [
                            40.86230555555556,
                            54.382222222222225
                        ],
                        [
                            40.730000000000004,
                            54.39186111111111
                        ],
                        [
                            40.73016666666667,
                            54.39377777777778
                        ],
                        [
                            40.58422222222222,
                            54.46152777777778
                        ],
                        [
                            40.58408333333333,
                            54.462944444444446
                        ],
                        [
                            40.55983333333333,
                            54.42825
                        ],
                        [
                            40.559638888888884,
                            54.42983333333333
                        ],
                        [
                            40.86516666666667,
                            54.38066666666667
                        ]
                    ]
                ]
            },
            "properties": {
                "description": "\u0420\u044f\u0437\u0430\u043d\u0441\u043a\u0430\u044f \u043e\u0431\u043b\u0430\u0441\u0442\u044c -> \u0441\u0442\u0430\u0440\u0438\u0446\u0430 \u041a\u043b\u044e\u0447:"
            }
        },
        {
            "type": "Feature",
            "geometry": {
                "type": "Polygon",
                "coordinates": [
                    [
                        [
                            40.74905555555556,
                            54.32641666666667
                        ],
                        [
                            40.74686111111111,
                            54.32763888888889
                        ],
                        [
                            40.764361111111114,
                            54.35597222222222
                        ],
                        [
                            40.762972222222224,
                            54.355111111111114
                        ],
                        [
                            40.72972222222222,
                            54.35155555555556
                        ],
                        [
                            40.72825,
                            54.35077777777778
                        ],
                        [
                            40.71630555555556,
                            54.38313888888889
                        ],
                        [
                            40.71638888888889,
                            54.38502777777778
                        ],
                        [
                            40.681527777777774,
                            54.35413888888889
                        ],
                        [
                            40.680638888888886,
                            54.35475
                        ],
                        [
                            40.74905555555556,
                            54.32641666666667
                        ]
                    ]
                ]
            },
            "properties": {
                "description": "\u0420\u044f\u0437\u0430\u043d\u0441\u043a\u0430\u044f \u043e\u0431\u043b\u0430\u0441\u0442\u044c -> \u041a\u043e\u043d\u0441\u0442\u0430\u043d\u0442\u0438\u043d\u043e\u0432\u0441\u043a\u0430\u044f \u0441\u0442\u0430\u0440\u0438\u0446\u0430 (\u0428\u0438\u043b\u043e\u0432\u0441\u043a\u0438\u0439 \u0440\u0430\u0439\u043e\u043d):"
            }
        },
        {
            "type": "Feature",
            "geometry": {
                "type": "Polygon",
                "coordinates": [
                    [
                        [
                            40.89080555555555,
                            54.3295
                        ],
                        [
                            40.890972222222224,
                            54.328944444444446
                        ],
                        [
                            40.89722222222222,
                            54.32936111111111
                        ],
                        [
                            40.896972222222225,
                            54.330083333333334
                        ],
                        [
                            40.89080555555555,
                            54.3295
                        ]
                    ]
                ]
            },
            "properties": {
                "description": "\u0420\u044f\u0437\u0430\u043d\u0441\u043a\u0430\u044f \u043e\u0431\u043b\u0430\u0441\u0442\u044c -> \u0428\u0438\u043b\u043e\u0432\u0441\u043a\u0438\u0439 \u0437\u0430\u0442\u043e\u043d (\u0428\u0438\u043b\u043e\u0432\u0441\u043a\u0438\u0439 \u0440\u0430\u0439\u043e\u043d):"
            }
        },
        {
            "type": "Feature",
            "geometry": {
                "type": "Polygon",
                "coordinates": [
                    [
                        [
                            41.00138888888889,
                            54.59055555555556
                        ],
                        [
                            41.02222222222222,
                            54.61222222222222
                        ],
                        [
                            41.00138888888889,
                            54.59055555555556
                        ]
                    ]
                ]
            },
            "properties": {
                "description": "\u0420\u044f\u0437\u0430\u043d\u0441\u043a\u0430\u044f \u043e\u0431\u043b\u0430\u0441\u0442\u044c -> \u0441\u0442\u0430\u0440\u0438\u0446\u0430 \u041d\u0438\u0432\u0435\u0440\u0445\u0430 (\u0428\u0438\u043b\u043e\u0432\u0441\u043a\u0438\u0439 \u0440\u0430\u0439\u043e\u043d):"
            }
        },
        {
            "type": "Feature",
            "geometry": {
                "type": "Polygon",
                "coordinates": [
                    [
                        [
                            40.98136111111111,
                            54.44127777777778
                        ],
                        [
                            40.977722222222226,
                            54.440416666666664
                        ],
                        [
                            40.96930555555556,
                            54.424638888888886
                        ],
                        [
                            40.978861111111115,
                            54.42252777777777
                        ],
                        [
                            40.98136111111111,
                            54.44127777777778
                        ]
                    ]
                ]
            },
            "properties": {
                "description": "\u0420\u044f\u0437\u0430\u043d\u0441\u043a\u0430\u044f \u043e\u0431\u043b\u0430\u0441\u0442\u044c -> \u0437\u0430\u0442\u043e\u043d \u0427\u0435\u0440\u043d\u044b\u0448\u0438\u0445\u0430 (\u0428\u0438\u043b\u043e\u0432\u0441\u043a\u0438\u0439 \u0440\u0430\u0439\u043e\u043d):"
            }
        },
        {
            "type": "Feature",
            "geometry": {
                "type": "Polygon",
                "coordinates": [
                    [
                        [
                            41.00527777777778,
                            54.44777777777777
                        ],
                        [
                            41.00297222222222,
                            54.44322222222222
                        ],
                        [
                            41.0095,
                            54.44005555555555
                        ],
                        [
                            41.01725,
                            54.44325
                        ],
                        [
                            41.01986111111111,
                            54.44866666666666
                        ],
                        [
                            41.01686111111111,
                            54.45752777777778
                        ],
                        [
                            41.01466666666666,
                            54.456361111111114
                        ],
                        [
                            41.01563888888889,
                            54.45161111111111
                        ],
                        [
                            41.00527777777778,
                            54.44777777777777
                        ]
                    ]
                ]
            },
            "properties": {
                "description": "\u0420\u044f\u0437\u0430\u043d\u0441\u043a\u0430\u044f \u043e\u0431\u043b\u0430\u0441\u0442\u044c -> \u0437\u0430\u0442\u043e\u043d \u041f\u0435\u0440\u0435\u043e\u043b\u043e\u043a (\u0428\u0438\u043b\u043e\u0432\u0441\u043a\u0438\u0439 \u0440\u0430\u0439\u043e\u043d):"
            }
        },
        {
            "type": "Feature",
            "geometry": {
                "type": "Polygon",
                "coordinates": [
                    [
                        [
                            41.06525,
                            54.53477777777778
                        ],
                        [
                            41.06502777777777,
                            54.52916666666667
                        ],
                        [
                            41.08080555555556,
                            54.52483333333333
                        ],
                        [
                            41.09238888888889,
                            54.528888888888886
                        ],
                        [
                            41.090805555555555,
                            54.52916666666667
                        ],
                        [
                            41.08119444444445,
                            54.525444444444446
                        ],
                        [
                            41.07038888888889,
                            54.53113888888889
                        ],
                        [
                            41.066833333333335,
                            54.53536111111111
                        ],
                        [
                            41.06525,
                            54.53477777777778
                        ]
                    ]
                ]
            },
            "properties": {
                "description": "\u0420\u044f\u0437\u0430\u043d\u0441\u043a\u0430\u044f \u043e\u0431\u043b\u0430\u0441\u0442\u044c -> \u0437\u0430\u0442\u043e\u043d \u0414\u0443\u0431\u0440\u043e\u0432\u0441\u043a\u0438\u0439, \u0440\u0435\u043a\u0430 \u0421\u0440\u0435\u0434\u043d\u0438\u043a \u0434\u043e \u0441\u0435\u043b\u0430 \u0410\u043a\u0443\u043b\u043e\u0432\u043e "
            }
        },
        {
            "type": "Feature",
            "geometry": {
                "type": "Polygon",
                "coordinates": [
                    [
                        [
                            40.99563888888889,
                            54.66922222222222
                        ],
                        [
                            41.026583333333335,
                            54.66255555555556
                        ],
                        [
                            41.037388888888884,
                            54.670833333333334
                        ],
                        [
                            41.007416666666664,
                            54.668861111111106
                        ],
                        [
                            40.99758333333333,
                            54.675777777777775
                        ],
                        [
                            40.99927777777778,
                            54.67630555555555
                        ],
                        [
                            41.00944444444445,
                            54.67052777777778
                        ],
                        [
                            41.03938888888889,
                            54.67166666666667
                        ],
                        [
                            41.02813888888889,
                            54.661722222222224
                        ],
                        [
                            40.99438888888889,
                            54.66833333333333
                        ],
                        [
                            40.99563888888889,
                            54.66922222222222
                        ]
                    ]
                ]
            },
            "properties": {
                "description": "\u0420\u044f\u0437\u0430\u043d\u0441\u043a\u0430\u044f \u043e\u0431\u043b\u0430\u0441\u0442\u044c -> \u0441\u0442\u0430\u0440\u0438\u0446\u0430 \u041c\u0435\u0434\u0432\u0435\u0436\u044c\u044f \u0433\u043e\u043b\u043e\u0432\u0430 (\u0428\u0438\u043b\u043e\u0432\u0441\u043a\u0438\u0439 \u0440\u0430\u0439\u043e\u043d):"
            }
        },
        {
            "type": "Feature",
            "geometry": {
                "type": "Polygon",
                "coordinates": [
                    [
                        [
                            41.097944444444444,
                            54.801361111111106
                        ],
                        [
                            41.10738888888889,
                            54.79586111111111
                        ],
                        [
                            41.114916666666666,
                            54.80408333333333
                        ],
                        [
                            41.11708333333333,
                            54.803749999999994
                        ],
                        [
                            41.10805555555556,
                            54.79547222222222
                        ],
                        [
                            41.09711111111111,
                            54.80119444444444
                        ],
                        [
                            41.097944444444444,
                            54.801361111111106
                        ]
                    ]
                ]
            },
            "properties": {
                "description": "\u0420\u044f\u0437\u0430\u043d\u0441\u043a\u0430\u044f \u043e\u0431\u043b\u0430\u0441\u0442\u044c -> \u0437\u0430\u0442\u043e\u043d \u041b\u0430\u0434\u044b\u0448\u0438\u043d\u0441\u043a\u0438\u0439 (\u0428\u0438\u043b\u043e\u0432\u0441\u043a\u0438\u0439 \u0440\u0430\u0439\u043e\u043d):"
            }
        },
        {
            "type": "Feature",
            "geometry": {
                "type": "Polygon",
                "coordinates": [
                    [
                        [
                            40.96775,
                            54.45077777777778
                        ],
                        [
                            40.946888888888886,
                            54.468444444444444
                        ],
                        [
                            40.95386111111112,
                            54.472722222222224
                        ],
                        [
                            40.976305555555555,
                            54.46175
                        ],
                        [
                            40.97438888888889,
                            54.461194444444445
                        ],
                        [
                            40.954638888888894,
                            54.47108333333333
                        ],
                        [
                            40.95416666666667,
                            54.46838888888889
                        ],
                        [
                            40.96941666666667,
                            54.45108333333334
                        ],
                        [
                            40.96775,
                            54.45077777777778
                        ]
                    ]
                ]
            },
            "properties": {
                "description": "\u0420\u044f\u0437\u0430\u043d\u0441\u043a\u0430\u044f \u043e\u0431\u043b\u0430\u0441\u0442\u044c -> \u043e\u0437\u0435\u0440\u043e \u0421\u0442\u0430\u0440\u0438\u0446\u0430 (\u0422\u044b\u0440\u043d\u043e\u0432\u0441\u043a\u0430\u044f) (\u0428\u0438\u043b\u043e\u0432\u0441\u043a\u0438\u0439 \u0440\u0430\u0439\u043e\u043d):"
            }
        },
        {
            "type": "Feature",
            "geometry": {
                "type": "Polygon",
                "coordinates": [
                    [
                        [
                            41.12225,
                            54.739222222222224
                        ],
                        [
                            41.141416666666665,
                            54.736555555555555
                        ],
                        [
                            41.15897222222222,
                            54.74747222222222
                        ],
                        [
                            41.14861111111111,
                            54.755916666666664
                        ],
                        [
                            41.117333333333335,
                            54.75322222222222
                        ],
                        [
                            41.117111111111114,
                            54.75233333333333
                        ],
                        [
                            41.14969444444444,
                            54.75322222222222
                        ],
                        [
                            41.155277777777776,
                            54.74780555555556
                        ],
                        [
                            41.13988888888889,
                            54.739111111111114
                        ],
                        [
                            41.12255555555556,
                            54.74344444444444
                        ],
                        [
                            41.12225,
                            54.739222222222224
                        ]
                    ]
                ]
            },
            "properties": {
                "description": "\u0420\u044f\u0437\u0430\u043d\u0441\u043a\u0430\u044f \u043e\u0431\u043b\u0430\u0441\u0442\u044c -> \u043e\u0437\u0435\u0440\u043e \u0420\u0443\u043c\u043a\u0430 (\u0428\u0438\u043b\u043e\u0432\u0441\u043a\u0438\u0439 \u0440\u0430\u0439\u043e\u043d):"
            }
        },
        {
            "type": "Feature",
            "geometry": {
                "type": "Polygon",
                "coordinates": [
                    [
                        [
                            41.110416666666666,
                            54.70077777777778
                        ],
                        [
                            41.113305555555556,
                            54.70330555555556
                        ],
                        [
                            41.09908333333333,
                            54.71241666666667
                        ],
                        [
                            41.092333333333336,
                            54.71172222222223
                        ],
                        [
                            41.110416666666666,
                            54.70077777777778
                        ]
                    ]
                ]
            },
            "properties": {
                "description": "\u0420\u044f\u0437\u0430\u043d\u0441\u043a\u0430\u044f \u043e\u0431\u043b\u0430\u0441\u0442\u044c -> \u043e\u0437\u0435\u0440\u043e \u0415\u0440\u0445\u0438\u043d\u043a\u0430 (\u0428\u0438\u043b\u043e\u0432\u0441\u043a\u0438\u0439 \u0440\u0430\u0439\u043e\u043d):"
            }
        },
        {
            "type": "Feature",
            "geometry": {
                "type": "Polygon",
                "coordinates": [
                    [
                        [
                            41.39438888888889,
                            54.875416666666666
                        ],
                        [
                            41.39344444444444,
                            54.87583333333333
                        ],
                        [
                            41.407333333333334,
                            54.89197222222222
                        ],
                        [
                            41.40611111111111,
                            54.892583333333334
                        ],
                        [
                            41.39438888888889,
                            54.875416666666666
                        ]
                    ]
                ]
            },
            "properties": {
                "description": "\u0420\u044f\u0437\u0430\u043d\u0441\u043a\u0430\u044f \u043e\u0431\u043b\u0430\u0441\u0442\u044c -> \u041f\u0435\u0440\u044c\u0438\u043d\u0441\u043a\u0430\u044f \u0441\u0442\u0430\u0440\u0438\u0446\u0430 (\u041a\u0430\u0441\u0438\u043c\u043e\u0432\u0441\u043a\u0438\u0439 \u0440\u0430\u0439\u043e\u043d):"
            }
        },
        {
            "type": "Feature",
            "geometry": {
                "type": "Polygon",
                "coordinates": [
                    [
                        [
                            41.183861111111106,
                            55.00072222222222
                        ],
                        [
                            41.168,
                            55.00066666666667
                        ],
                        [
                            41.183861111111106,
                            55.00072222222222
                        ]
                    ]
                ]
            },
            "properties": {
                "description": "\u0420\u044f\u0437\u0430\u043d\u0441\u043a\u0430\u044f \u043e\u0431\u043b\u0430\u0441\u0442\u044c -> \u0417\u0430\u0431\u0435\u043b\u0438\u043d\u0441\u043a\u0430\u044f \u043f\u043e\u0439\u043c\u0430:"
            }
        },
        {
            "type": "Feature",
            "geometry": {
                "type": "Polygon",
                "coordinates": [
                    [
                        [
                            41.79661111111111,
                            54.83225
                        ],
                        [
                            41.845083333333335,
                            54.84986111111111
                        ],
                        [
                            41.85013888888889,
                            54.83786111111112
                        ],
                        [
                            41.81183333333333,
                            54.82808333333334
                        ],
                        [
                            41.81325,
                            54.82794444444445
                        ],
                        [
                            41.85161111111111,
                            54.837722222222226
                        ],
                        [
                            41.845666666666666,
                            54.85088888888889
                        ],
                        [
                            41.79725,
                            54.834138888888894
                        ],
                        [
                            41.79661111111111,
                            54.83225
                        ]
                    ]
                ]
            },
            "properties": {
                "description": "\u0420\u044f\u0437\u0430\u043d\u0441\u043a\u0430\u044f \u043e\u0431\u043b\u0430\u0441\u0442\u044c -> \u0411\u0435\u043b\u044b\u043d\u0441\u043a\u0430\u044f \u0441\u0442\u0430\u0440\u0438\u0446\u0430 (\u041a\u0430\u0441\u0438\u043c\u043e\u0432\u0441\u043a\u0438\u0439 \u0440\u0430\u0439\u043e\u043d):"
            }
        },
        {
            "type": "Feature",
            "geometry": {
                "type": "Polygon",
                "coordinates": [
                    [
                        [
                            41.193194444444444,
                            54.994166666666665
                        ],
                        [
                            41.20272222222223,
                            54.99238888888889
                        ],
                        [
                            41.20291666666667,
                            54.9925
                        ],
                        [
                            41.19405555555555,
                            54.99436111111111
                        ],
                        [
                            41.193194444444444,
                            54.994166666666665
                        ]
                    ]
                ]
            },
            "properties": {
                "description": "\u0420\u044f\u0437\u0430\u043d\u0441\u043a\u0430\u044f \u043e\u0431\u043b\u0430\u0441\u0442\u044c -> \u041a\u043b\u0435\u0442\u0438\u043d\u0441\u043a\u0438\u0439 \u0437\u0430\u0442\u043e\u043d (\u041a\u0430\u0441\u0438\u043c\u043e\u0432\u0441\u043a\u0438\u0439 \u0440\u0430\u0439\u043e\u043d):"
            }
        },
        {
            "type": "Feature",
            "geometry": {
                "type": "Polygon",
                "coordinates": [
                    [
                        [
                            41.23019444444444,
                            54.935694444444444
                        ],
                        [
                            41.236472222222226,
                            54.931527777777774
                        ],
                        [
                            41.23019444444444,
                            54.935694444444444
                        ]
                    ]
                ]
            },
            "properties": {
                "description": "\u0420\u044f\u0437\u0430\u043d\u0441\u043a\u0430\u044f \u043e\u0431\u043b\u0430\u0441\u0442\u044c -> \u041c\u0430\u043b\u0435\u0435\u0432\u0441\u043a\u0438\u0439 \u0437\u0430\u0442\u043e\u043d (\u041a\u0430\u0441\u0438\u043c\u043e\u0432\u0441\u043a\u0438\u0439 \u0440\u0430\u0439\u043e\u043d) \u043f\u0440\u0430\u0432\u043e\u0431\u0435\u0440\u0435\u0436\u044c\u0435 \u0440\u0435\u043a\u0438 \u041e\u043a\u0430 \u0432 \u0440\u0430\u0439\u043e\u043d\u0435 \u0441\u0435\u043b\u0430 \u041c\u0430\u043b\u0435\u0435\u0432\u043e (\u043f\u043b\u043e\u0449\u0430\u0434\u044c 2 \u0433\u0430):"
            }
        },
        {
            "type": "Feature",
            "geometry": {
                "type": "Polygon",
                "coordinates": [
                    [
                        [
                            41.24272222222222,
                            54.93372222222222
                        ],
                        [
                            41.2415,
                            54.940861111111104
                        ],
                        [
                            41.24088888888889,
                            54.94080555555555
                        ],
                        [
                            41.241194444444446,
                            54.93372222222222
                        ],
                        [
                            41.24272222222222,
                            54.93372222222222
                        ]
                    ]
                ]
            },
            "properties": {
                "description": "\u0420\u044f\u0437\u0430\u043d\u0441\u043a\u0430\u044f \u043e\u0431\u043b\u0430\u0441\u0442\u044c -> \u0421\u0430\u043c\u044b\u043b\u043e\u0432\u0441\u043a\u0438\u0439 \u0437\u0430\u0442\u043e\u043d (\u041a\u0430\u0441\u0438\u043c\u043e\u0432\u0441\u043a\u0438\u0439 \u0440\u0430\u0439\u043e\u043d):"
            }
        },
        {
            "type": "Feature",
            "geometry": {
                "type": "Polygon",
                "coordinates": [
                    [
                        [
                            41.76219444444445,
                            54.94130555555555
                        ],
                        [
                            41.764805555555554,
                            54.927861111111106
                        ],
                        [
                            41.77305555555555,
                            54.930305555555556
                        ],
                        [
                            41.76663888888889,
                            54.94080555555555
                        ],
                        [
                            41.76219444444445,
                            54.94130555555555
                        ]
                    ]
                ]
            },
            "properties": {
                "description": "\u0420\u044f\u0437\u0430\u043d\u0441\u043a\u0430\u044f \u043e\u0431\u043b\u0430\u0441\u0442\u044c -> \u041f\u0443\u0441\u0442\u044b\u043d\u0441\u043a\u0430\u044f \u0441\u0442\u0430\u0440\u0438\u0446\u0430 (\u041a\u0430\u0441\u0438\u043c\u043e\u0432\u0441\u043a\u0438\u0439 \u0440\u0430\u0439\u043e\u043d):"
            }
        },
        {
            "type": "Feature",
            "geometry": {
                "type": "Polygon",
                "coordinates": [
                    [
                        [
                            41.65408333333333,
                            54.81669444444445
                        ],
                        [
                            41.64516666666667,
                            54.80755555555555
                        ],
                        [
                            41.64202777777778,
                            54.80925
                        ],
                        [
                            41.653,
                            54.81897222222223
                        ],
                        [
                            41.65408333333333,
                            54.81669444444445
                        ]
                    ]
                ]
            },
            "properties": {
                "description": "\u0420\u044f\u0437\u0430\u043d\u0441\u043a\u0430\u044f \u043e\u0431\u043b\u0430\u0441\u0442\u044c -> \u0421\u043e\u0441\u043d\u043e\u0432\u0441\u043a\u0438\u0439 \u0437\u0430\u0442\u043e\u043d (\u041a\u0430\u0441\u0438\u043c\u043e\u0432\u0441\u043a\u0438\u0439 \u0440\u0430\u0439\u043e\u043d):"
            }
        },
        {
            "type": "Feature",
            "geometry": {
                "type": "Polygon",
                "coordinates": [
                    [
                        [
                            41.53311111111111,
                            54.799
                        ],
                        [
                            41.4985,
                            54.816944444444445
                        ],
                        [
                            41.494,
                            54.81491666666666
                        ],
                        [
                            41.529916666666665,
                            54.79708333333333
                        ],
                        [
                            41.53311111111111,
                            54.799
                        ]
                    ]
                ]
            },
            "properties": {
                "description": "\u0420\u044f\u0437\u0430\u043d\u0441\u043a\u0430\u044f \u043e\u0431\u043b\u0430\u0441\u0442\u044c -> \u0410\u043d\u0430\u043d\u044c\u0435\u0432\u0441\u043a\u0438\u0439 \u0437\u0430\u0442\u043e\u043d:"
            }
        },
        {
            "type": "Feature",
            "geometry": {
                "type": "Polygon",
                "coordinates": [
                    [
                        [
                            41.834805555555555,
                            54.73411111111111
                        ],
                        [
                            41.81969444444445,
                            54.74483333333333
                        ],
                        [
                            41.81816666666667,
                            54.74480555555556
                        ],
                        [
                            41.834583333333335,
                            54.73272222222222
                        ],
                        [
                            41.834805555555555,
                            54.73411111111111
                        ]
                    ]
                ]
            },
            "properties": {
                "description": "\u0420\u044f\u0437\u0430\u043d\u0441\u043a\u0430\u044f \u043e\u0431\u043b\u0430\u0441\u0442\u044c -> \u041f\u0435\u0442\u0441\u043a\u0438\u0439 \u0437\u0430\u0442\u043e\u043d:"
            }
        },
        {
            "type": "Feature",
            "geometry": {
                "type": "Polygon",
                "coordinates": [
                    [
                        [
                            41.76241666666667,
                            55.02119444444445
                        ],
                        [
                            41.75747222222222,
                            55.03947222222222
                        ],
                        [
                            41.74552777777778,
                            55.05763888888889
                        ],
                        [
                            41.74322222222222,
                            55.05705555555555
                        ],
                        [
                            41.75597222222222,
                            55.03941666666667
                        ],
                        [
                            41.760194444444444,
                            55.020916666666665
                        ],
                        [
                            41.76241666666667,
                            55.02119444444445
                        ]
                    ]
                ]
            },
            "properties": {
                "description": "\u0420\u044f\u0437\u0430\u043d\u0441\u043a\u0430\u044f \u043e\u0431\u043b\u0430\u0441\u0442\u044c -> \u041b\u0430\u0441\u0438\u043d\u0441\u043a\u0438\u0439 \u0437\u0430\u0442\u043e\u043d (\u041a\u0430\u0441\u0438\u043c\u043e\u0432\u0441\u043a\u0438\u0439 \u0440\u0430\u0439\u043e\u043d):"
            }
        },
        {
            "type": "Feature",
            "geometry": {
                "type": "Polygon",
                "coordinates": [
                    [
                        [
                            41.762166666666666,
                            55.00322222222222
                        ],
                        [
                            41.763527777777774,
                            55.002833333333335
                        ],
                        [
                            41.76361111111111,
                            54.99702777777778
                        ],
                        [
                            41.76313888888889,
                            54.99702777777778
                        ],
                        [
                            41.762166666666666,
                            55.00322222222222
                        ]
                    ]
                ]
            },
            "properties": {
                "description": "\u0420\u044f\u0437\u0430\u043d\u0441\u043a\u0430\u044f \u043e\u0431\u043b\u0430\u0441\u0442\u044c -> \u0418\u0432\u0430\u043d\u0447\u0438\u043d\u0441\u043a\u0430\u044f \u043f\u0440\u043e\u0442\u043e\u043a\u0430 (\u041a\u0430\u0441\u0438\u043c\u043e\u0432\u0441\u043a\u0438\u0439 \u0440\u0430\u0439\u043e\u043d):"
            }
        },
        {
            "type": "Feature",
            "geometry": {
                "type": "Polygon",
                "coordinates": [
                    [
                        [
                            41.73683333333334,
                            55.09263888888889
                        ],
                        [
                            41.73916666666667,
                            55.10761111111111
                        ],
                        [
                            41.73683333333334,
                            55.09263888888889
                        ]
                    ]
                ]
            },
            "properties": {
                "description": "\u0420\u044f\u0437\u0430\u043d\u0441\u043a\u0430\u044f \u043e\u0431\u043b\u0430\u0441\u0442\u044c -> \u0416\u0443\u043a\u043e\u0432\u0441\u043a\u0438\u0439 \u0437\u0430\u0442\u043e\u043d (\u041a\u0430\u0441\u0438\u043c\u043e\u0432\u0441\u043a\u0438\u0439 \u0440\u0430\u0439\u043e\u043d) \u043f\u0440\u0430\u0432\u043e\u0431\u0435\u0440\u0435\u0436\u044c\u0435 \u0440\u0435\u043a\u0438 \u041e\u043a\u0430 \u0432 \u0440\u0430\u0439\u043e\u043d\u0435 \u0434\u0435\u0440\u0435\u0432\u043d\u0438 \u0416\u0443\u043a\u043e\u0432\u043e (\u043f\u043b\u043e\u0449\u0430\u0434\u044c 0,3 \u0433\u0430):"
            }
        },
        {
            "type": "Feature",
            "geometry": {
                "type": "Polygon",
                "coordinates": [
                    [
                        [
                            41.81805555555556,
                            55.003055555555555
                        ],
                        [
                            41.8415,
                            55.005
                        ],
                        [
                            41.85033333333333,
                            55.01102777777778
                        ],
                        [
                            41.84780555555556,
                            55.02488888888889
                        ],
                        [
                            41.84558333333334,
                            55.023944444444446
                        ],
                        [
                            41.84747222222222,
                            55.01102777777778
                        ],
                        [
                            41.819388888888895,
                            55.004583333333336
                        ],
                        [
                            41.81805555555556,
                            55.003055555555555
                        ]
                    ]
                ]
            },
            "properties": {
                "description": "\u0420\u044f\u0437\u0430\u043d\u0441\u043a\u0430\u044f \u043e\u0431\u043b\u0430\u0441\u0442\u044c -> \u043e\u0437\u0435\u0440\u043e \u0411\u0435\u043b\u043e\u0435 (\u041a\u0430\u0441\u0438\u043c\u043e\u0432\u0441\u043a\u0438\u0439 \u0440\u0430\u0439\u043e\u043d):"
            }
        },
        {
            "type": "Feature",
            "geometry": {
                "type": "Polygon",
                "coordinates": [
                    [
                        [
                            41.808527777777776,
                            55.03230555555555
                        ],
                        [
                            41.83705555555556,
                            55.029694444444445
                        ],
                        [
                            41.83616666666667,
                            55.028166666666664
                        ],
                        [
                            41.807472222222216,
                            55.03019444444444
                        ],
                        [
                            41.808527777777776,
                            55.03230555555555
                        ]
                    ]
                ]
            },
            "properties": {
                "description": "\u0420\u044f\u0437\u0430\u043d\u0441\u043a\u0430\u044f \u043e\u0431\u043b\u0430\u0441\u0442\u044c -> \u043e\u0437\u0435\u0440\u043e \u0421\u0440\u0435\u0434\u043d\u0435\u0435 \u0411\u0435\u043b\u043e\u0435 (\u041a\u0430\u0441\u0438\u043c\u043e\u0432\u0441\u043a\u0438\u0439 \u0440\u0430\u0439\u043e\u043d):"
            }
        },
        {
            "type": "Feature",
            "geometry": {
                "type": "Polygon",
                "coordinates": [
                    [
                        [
                            42.007694444444446,
                            54.446999999999996
                        ],
                        [
                            42.011361111111114,
                            54.446666666666665
                        ],
                        [
                            42.03241666666666,
                            54.469722222222224
                        ],
                        [
                            42.028888888888886,
                            54.469861111111115
                        ],
                        [
                            42.007694444444446,
                            54.446999999999996
                        ]
                    ]
                ]
            },
            "properties": {
                "description": "\u0420\u044f\u0437\u0430\u043d\u0441\u043a\u0430\u044f \u043e\u0431\u043b\u0430\u0441\u0442\u044c -> \u0440\u0435\u043a\u0430 \u0426\u043d\u0430:"
            }
        },
        {
            "type": "Feature",
            "geometry": {
                "type": "Polygon",
                "coordinates": [
                    [
                        [
                            39.92038888888889,
                            53.71233333333333
                        ],
                        [
                            39.92047222222222,
                            53.71255555555556
                        ],
                        [
                            40.02627777777778,
                            53.75861111111111
                        ],
                        [
                            40.02613888888889,
                            53.75886111111111
                        ],
                        [
                            39.92038888888889,
                            53.71233333333333
                        ]
                    ]
                ]
            },
            "properties": {
                "description": "\u0420\u044f\u0437\u0430\u043d\u0441\u043a\u0430\u044f \u043e\u0431\u043b\u0430\u0441\u0442\u044c -> \u0440\u0435\u043a\u0430 \u0420\u0430\u043d\u043e\u0432\u0430 (\u0420\u044f\u0436\u0441\u043a\u0438\u0439 \u0440\u0430\u0439\u043e\u043d):"
            }
        },
        {
            "type": "Feature",
            "geometry": {
                "type": "Polygon",
                "coordinates": [
                    [
                        [
                            40.19027777777777,
                            53.98994444444445
                        ],
                        [
                            40.19,
                            53.99122222222222
                        ],
                        [
                            40.22686111111111,
                            54.031888888888886
                        ],
                        [
                            40.225944444444444,
                            54.03227777777778
                        ],
                        [
                            40.19027777777777,
                            53.98994444444445
                        ]
                    ]
                ]
            },
            "properties": {
                "description": "\u0420\u044f\u0437\u0430\u043d\u0441\u043a\u0430\u044f \u043e\u0431\u043b\u0430\u0441\u0442\u044c -> \u0440\u0435\u043a\u0430 \u0420\u0430\u043d\u043e\u0432\u0430 (\u041a\u043e\u0440\u0430\u0431\u043b\u0438\u043d\u0441\u043a\u0438\u0439 \u0440\u0430\u0439\u043e\u043d):"
            }
        },
        {
            "type": "Feature",
            "geometry": {
                "type": "Polygon",
                "coordinates": [
                    [
                        [
                            40.24030555555556,
                            54.128416666666666
                        ],
                        [
                            40.237,
                            54.13569444444445
                        ],
                        [
                            40.224694444444445,
                            54.150277777777774
                        ],
                        [
                            40.22347222222223,
                            54.15033333333333
                        ],
                        [
                            40.224111111111114,
                            54.13972222222222
                        ],
                        [
                            40.236333333333334,
                            54.13547222222222
                        ],
                        [
                            40.239472222222226,
                            54.12833333333333
                        ],
                        [
                            40.24030555555556,
                            54.128416666666666
                        ]
                    ]
                ]
            },
            "properties": {
                "description": "\u0420\u044f\u0437\u0430\u043d\u0441\u043a\u0430\u044f \u043e\u0431\u043b\u0430\u0441\u0442\u044c -> \u0440\u0435\u043a\u0430 \u041f\u0440\u043e\u043d\u044f (\u0421\u0442\u0430\u0440\u043e\u0436\u0438\u043b\u043e\u0432\u0441\u043a\u0438\u0439 \u0440\u0430\u0439\u043e\u043d):"
            }
        }
    ]
}
